196P/Tichy,e,19.2992,24.1123,12.0677,3.807208,0.1326766,0.42863948,347.2104,07/25.0/2022,2000,g 13.5,4.0
# From MPC 94676
197P/LINEAR,e,25.5277,66.3643,188.7494,2.867994,0.2029256,0.62937523,332.4578,07/25.0/2022,2000,g 16.5,2.0
# From NK 1596
198P/ODAS,e,1.3386,358.2378,69.1828,3.597071,0.1444710,0.44401098,190.5132,07/25.0/2022,2000,g  9.0,4.0
# From MPEC 2022-N37
199P/Shoemaker,e,24.9331,92.3561,191.7508,5.886957,0.0690030,0.50562008,333.8834,07/25.0/2022,2000,g 10.0,4.0
# From MPEC 2022-C56
200P/Larsen,e,12.0980,234.7569,134.2375,4.944667,0.0896393,0.33270523,97.8082,07/25.0/2022,2000,g  9.0,4.0
# From MPC 93588
201P/LONEOS,e,5.7396,19.7453,41.5428,3.354529,0.1604193,0.63721328,68.0612,07/25.0/2022,2000,g 14.0,4.0
# From MPEC 2022-K19
202P/Scotti,e,2.1250,177.3542,275.8375,4.102380,0.1186179,0.25912556,281.0283,07/25.0/2022,2000,g 13.5,4.0
# From MPEC 2021-S45
203P/Korlevic,e,2.9726,290.3120,154.7715,4.669820,0.0976684,0.31549599,85.1963,07/25.0/2022,2000,g 14.5,2.0
# From MPC 98566
204P/LINEAR-NEAT,e,6.5962,108.5001,356.6415,3.581246,0.1454296,0.48777654,343.2972,07/25.0/2022,2000,g 14.0,4.0
# From MPEC 2022-K19
205P/Giacobini,e,15.3062,179.6022,154.1720,3.542482,0.1478232,0.56810037,28.4293,07/25.0/2022,2000,g 13.0,4.0
# From MPC 75725
206P/Barnard-Boattini,e,33.6376,202.3334,189.5131,3.489347,0.1512126,0.55150392,76.7268,07/25.0/2022,2000,g 19.0,4.0
# From MPC 75725
207P/NEAT,e,10.1981,198.1860,273.0576,3.876640,0.1291282,0.75856291,288.2296,07/25.0/2022,2000,g 16.0,4.0
# From MPEC 2022-K19
208P/McMillan,e,4.4123,36.3396,310.5495,4.043027,0.1212395,0.37415102,267.8025,07/25.0/2022,2000,g 12.5,4.0
# From MPC 90771
209P/LINEAR,e,21.2590,62.7704,152.4408,2.959920,0.1935459,0.67313908,220.4481,07/25.0/2022,2000,g 17.0,2.0
# From MPC105242
210P/Christensen,e,10.2694,93.8134,345.8943,3.163327,0.1751813,0.83347421,146.8102,07/25.0/2022,2000,g 13.5,4.0
# From MPEC 2022-ED3
211P/Hill,e,18.9210,117.1318,4.2774,3.546547,0.1475691,0.34369495,349.4346,07/25.0/2022,2000,g 12.5,4.0
# From MPEC 2021-F20
212P/NEAT,e,22.1639,98.1293,14.0608,3.895784,0.1281775,0.58720615,277.9418,07/25.0/2022,2000,g 17.0,2.0
# From MPEC 2022-GA9
213P/VanNess,e,10.3811,311.2904,5.7220,3.346891,0.1609688,0.40822533,283.6008,07/25.0/2022,2000,g 10.5,4.0
# From MPC 92986
214P/LINEAR,e,15.1834,348.2491,190.1881,3.619926,0.1431049,0.48590982,350.9513,07/25.0/2022,2000,g 13.0,4.0
# From MPEC 2022-F14
215P/NEAT,e,10.5783,56.6831,262.3431,4.330027,0.1093876,0.16644516,107.0411,07/25.0/2022,2000,g 11.0,4.0
# From MPC100284
216P/LINEAR,e,9.0652,359.8130,151.5389,3.862179,0.1298541,0.44833286,291.0955,07/25.0/2022,2000,g 13.0,4.0
# From MPEC 2021-N06
217P/LINEAR,e,12.8627,125.4499,246.8986,3.949238,0.1255840,0.68921366,230.0664,07/25.0/2022,2000,g 12.0,4.0
# From MPEC 2022-K19
218P/LINEAR,e,2.7296,175.9911,59.6269,3.089963,0.1814572,0.62257938,119.6132,07/25.0/2022,2000,g 16.0,4.0
# From MPC100284
219P/LINEAR,e,11.5375,230.9521,107.5362,3.647664,0.1414757,0.35416012,279.5648,07/25.0/2022,2000,g 11.0,4.0
# From MPEC 2021-BE3
220P/McNaught,e,8.1287,150.1024,180.5850,3.117002,0.1791012,0.50156484,105.9147,07/25.0/2022,2000,g 15.0,4.0
# From MPEC 2021-J28
221P/LINEAR,e,11.4292,229.6757,40.1651,3.458438,0.1532442,0.49309247,33.5385,07/25.0/2022,2000,g 14.5,4.0
# From MPC 92277
222P/LINEAR,e,5.0986,6.7761,346.2684,2.898970,0.1996818,0.71480333,228.6585,07/25.0/2022,2000,g 20.0,4.0
# From MPEC 2021-S45
223P/Skiff,e,27.0264,346.7705,37.8344,4.158743,0.1162147,0.41641260,148.0183,07/25.0/2022,2000,g 12.0,4.0
# From MPC 75727
224P/LINEAR-NEAT,e,13.3052,40.0383,16.6629,3.444629,0.1541666,0.40603144,349.6780,07/25.0/2022,2000,g 15.5,4.0
# From MPC 75727
225P/LINEAR,e,21.3667,14.2045,3.8985,3.648594,0.1414216,0.63842582,306.3913,07/25.0/2022,2000,g 18.0,4.0
# From MPC106349
226P/Pigott-LINEAR-Kowalski,e,44.0412,54.0088,341.0570,3.766577,0.1348291,0.52887788,289.8511,07/25.0/2022,2000,g 12.5,4.0
# From MPC102956
227P/Catalina-LINEAR,e,7.4037,37.3308,104.3834,3.466267,0.1527253,0.53090253,270.0618,07/25.0/2022,2000,g 16.5,2.0
# From MPEC 2022-HC2
228P/LINEAR,e,7.9131,30.9857,114.9536,4.167984,0.1158284,0.17623005,100.5904,07/25.0/2022,2000,g 14.1,4.0
# From MPC106349
229P/Gibbs,e,26.0922,157.9099,224.0179,3.927454,0.1266302,0.37775145,239.1395,07/25.0/2022,2000,g 13.0,4.0
# From MPEC 2022-GA9
230P/LINEAR,e,15.4698,106.9842,313.4363,3.451555,0.1537029,0.54547873,19.6212,07/25.0/2022,2000,g 13.0,4.0
# From MPEC 2022-K19
231P/LINEAR-NEAT,e,12.3115,133.0044,44.1205,4.042742,0.1212523,0.24429427,137.5428,07/25.0/2022,2000,g 14.5,2.0
# From MPC112394
232P/Hill,e,14.6405,56.0194,53.2760,4.476431,0.1040654,0.33449156,125.5474,07/25.0/2022,2000,g 11.5,4.0
# From MPEC 2021-N06
233P/La Sagra,e,11.2869,74.9151,26.9822,3.029032,0.1869598,0.41200558,123.6549,07/25.0/2022,2000,g 15.0,4.0
# From MPEC 2022-K19
234P/LINEAR,e,11.5356,179.5722,357.2477,3.797803,0.1331697,0.25597199,250.5966,07/25.0/2022,2000,g 12.0,4.0
# From MPC110497
235P/LINEAR,e,9.1943,202.5679,333.6611,3.929471,0.1265328,0.33528478,199.7238,07/25.0/2022,2000,g 12.0,4.0
# From MPC107688
236P/LINEAR,e,16.3458,245.5843,119.3057,3.728749,0.1368861,0.50934681,233.4486,07/25.0/2022,2000,g 14.0,4.0
# From MPEC 2022-K19
237P/LINEAR,e,14.0151,245.3645,25.2530,3.511870,0.1497602,0.43421603,316.0214,07/25.0/2022,2000,g 14.5,2.0
# From MPEC 2022-K19
238P/Read,e,1.2640,51.6256,324.2188,3.166847,0.1748893,0.25182041,8.6611,07/25.0/2022,2000,g 14.5,4.0
# From MPEC 2021-F20
239P/LINEAR,e,11.3006,255.9209,220.3919,4.468373,0.1043470,0.63017141,134.9049,07/25.0/2022,2000,g 17.5,2.0
# From MPEC 2021-F20
240P/NEAT,e,23.5239,74.9075,351.9434,3.864937,0.1297151,0.44956867,198.5846,07/25.0/2022,2000,g 12.1,4.0
# From MPEC 2022-J42
241P/LINEAR,e,21.1042,305.4814,111.4456,4.919925,0.0903163,0.61024349,32.8854,07/25.0/2022,2000,g 13.5,4.0
# From MPEC 2021-S45
242P/Spahr,e,32.5094,180.3762,245.5810,5.496579,0.0764831,0.27869641,292.0733,07/25.0/2022,2000,g  8.0,4.0
# From MPEC 2022-K19
243P/NEAT,e,7.6408,87.6104,283.6012,3.830153,0.1314861,0.36055144,187.6791,07/25.0/2022,2000,g 12.5,4.0
# From MPEC 2022-ED3
244P/Scotti,e,2.2594,353.9913,93.0816,4.895414,0.0909955,0.19916059,349.5299,07/25.0/2022,2000,g  9.0,4.0
# From MPEC 2022-CN4
245P/WISE,e,21.1931,316.6587,316.8760,4.046564,0.1210806,0.45644737,197.1528,07/25.0/2022,2000,g 14.0,4.0
# From MPEC 2022-O01
246P/NEAT,e,15.9662,78.4977,176.9413,4.031763,0.1217479,0.28915779,62.7130,07/25.0/2022,2000,g 10.5,4.0
# From MPEC 2021-F20
247P/LINEAR,e,13.6572,54.0218,47.4200,3.967939,0.1246972,0.62446804,166.0646,07/25.0/2022,2000,g 16.5,2.0
# From MPC 75730
248P/Gibbs,e,6.3509,207.8036,209.8524,5.990900,0.0672150,0.63889676,282.8240,07/25.0/2022,2000,g 14.0,4.0
# From MPEC 2021-S45
249P/LINEAR,e,8.3884,239.1074,65.7070,2.763435,0.2145509,0.81985893,162.0975,07/25.0/2022,2000,g 15.5,4.0
# From MPC110497
250P/Larson,e,13.1537,73.3947,46.1309,3.766955,0.1348089,0.39919718,221.4190,07/25.0/2022,2000,g 14.5,4.0
# From MPC104795
251P/LINEAR,e,23.3867,219.3526,31.2764,3.512212,0.1497383,0.50460287,274.9095,07/25.0/2022,2000,g 16.5,2.0
# From MPEC 2021-S45
252P/LINEAR,e,10.4114,190.9270,343.3578,3.050290,0.1850088,0.67164769,70.0746,07/25.0/2022,2000,g 17.5,4.0
# From MPEC 2020-FB5
253P/PANSTARRS,e,4.9435,146.8844,230.6774,3.465180,0.1527972,0.41443586,234.8903,07/25.0/2022,2000,g 14.5,4.0
# From MPEC 2022-K19
254P/McNaught,e,32.5700,129.1805,219.6111,4.614532,0.0994289,0.31976783,65.8996,07/25.0/2022,2000,g 11.0,4.0
# From MPEC 2021-UA9
255P/Levy,e,13.4110,275.6654,186.0125,2.942341,0.1952831,0.71154366,351.3497,07/25.0/2022,2000,g 14.1,4.0
# From MPEC 2022-C56
256P/LINEAR,e,27.6191,81.3384,124.2088,4.639245,0.0986355,0.41797649,337.2826,07/25.0/2022,2000,g 14.0,2.0
# From MPEC 2021-Y10
257P/Catalina,e,20.2201,207.7219,117.7283,3.763424,0.1349986,0.43022882,92.1045,07/25.0/2022,2000,g 11.5,4.0
# From MPEC 2021-U31
258P/PANSTARRS,e,6.7464,126.2416,25.8408,4.395481,0.1069534,0.20840494,82.0451,07/25.0/2022,2000,g 13.0,4.0
# From MPC106349
259P/Garradd,e,15.8924,51.4342,257.6324,2.730960,0.2183892,0.33889889,36.3938,07/25.0/2022,2000,g 15.5,4.0
# From MPEC 2022-O01
260P/McNaught,e,15.0584,349.3384,18.4306,3.623169,0.1429128,0.60934866,149.8326,07/25.0/2022,2000,g 13.5,4.0
# From MPEC 2021-J28
261P/Larson,e,6.0729,291.1316,67.2251,3.490438,0.1511417,0.42336202,171.0191,07/25.0/2022,2000,g 14.0,4.0
# From MPC 82322
262P/McNaught-Russell,e,29.2733,217.8670,171.0423,6.872366,0.0547072,0.81617798,192.5485,07/25.0/2022,2000,g 13.5,4.0
# From MPC 89018
263P/Gibbs,e,11.5215,105.5149,35.0209,3.042230,0.1857445,0.59355985,324.7886,07/25.0/2022,2000,g  9.0,4.0
# From MPC114608
264P/Larsen,e,25.2819,220.3206,346.7177,3.887340,0.1285954,0.37584828,139.6331,07/25.0/2022,2000,g 13.0,4.0
# From MPC 79870
265P/LINEAR,e,14.3646,342.9262,33.4665,4.255195,0.1122858,0.64761809,59.6080,07/25.0/2022,2000,g 14.5,4.0
# From MPEC 2021-F20
266P/Christensen,e,3.4270,4.9975,97.6933,3.532161,0.1484716,0.33970433,122.7520,07/25.0/2022,2000,g 14.7,4.0
# From MPC114608
267P/LONEOS,e,6.1422,228.5773,114.2186,3.211084,0.1712878,0.61441515,250.4327,07/25.0/2022,2000,g 19.5,4.0
# From MPC 92277
268P/Bernardi,e,15.8252,126.8440,359.8010,4.567013,0.1009847,0.47774886,271.2574,07/25.0/2022,2000,g 14.0,4.0
# From MPC104795
269P/Jedicke,e,7.0786,241.7344,225.7338,7.070966,0.0524187,0.43116107,149.6948,07/25.0/2022,2000,g 10.0,4.0
# From MPC 88332
270P/Gehrels,e,2.9231,223.0173,209.7686,6.660702,0.0573356,0.46857266,191.0760,07/25.0/2022,2000,g  8.0,4.0
# From MPC 92277
271P/van Houten-Lemmon,e,6.8724,9.3186,36.3922,7.037926,0.0527882,0.39534502,173.9773,07/25.0/2022,2000,g 11.0,4.0
# From MPEC 2022-C56
272P/NEAT,e,18.0739,109.4696,27.8953,4.460493,0.1046236,0.45472619,0.8323,07/25.0/2022,2000,g 16.0,2.0
# From MPC 82723
273P/Pons-Gambart,e,136.7447,320.3983,20.3201,31.94499,0.0054588,0.97427057,0.0000,12/20.5534/2012,2000,g 11.5,4.0
# From MPEC 2022-M21
